ONEWEB-0298             
1 49087U 21075N   24067.53955993  .00000086  00000+0  18881-3 0  9992
2 49087  87.9265 171.3169 0002007 112.7225 247.4119 13.17650721125092
ONEWEB-0299             
1 49088U 21075P   24067.54114055  .00000058  00000+0  11717-3 0  9990
2 49088  87.9259 171.2904 0002050 114.9206 245.2139 13.17650739125056
ONEWEB-0300             
1 49089U 21075Q   24068.19509278 -.00000410  00000+0 -11742-2 0  9999
2 49089  87.9029 156.0581 0002164 104.0427 256.0942 13.12442568127198
ONEWEB-0301             
1 49090U 21075R   24068.17920094 -.00000155  00000+0 -46680-3 0  9998
2 49090  87.9031 156.0638 0002046  97.1688 262.9673 13.12440522126550
ONEWEB-0302             
1 49091U 21075S   24068.47145719  .00000265  00000+0  70130-3 0  9992
2 49091  87.9031 156.0037 0001853 114.9047 245.2275 13.12440837126580
ONEWEB-0304             
1 49092U 21075T   24068.35112429  .00000003  00000+0 -25565-4 0  9996
2 49092  87.9264 171.1425 0001857 118.6649 241.4669 13.17651504125147
ONEWEB-0305             
1 49093U 21075U   24067.58385318  .00000041  00000+0  73572-4 0  9992
2 49093  87.9261 171.2836 0002183 119.8668 240.2681 13.17650606125063
ONEWEB-0308             
1 49094U 21075V   24068.23640576  .00000433  00000+0  11670-2 0  9990
2 49094  87.9031 156.0508 0001961 103.9318 256.2029 13.12442542126567
